{
  "type": "FeatureCollection",
  "features": [
    {
      "type": "Feature",
      "properties": {
        "norad_id": 41556,
        "name": "ZIYUAN 3-2 (ZY 3-2)",
        "group": "resource",
        "lat": 81.50207955192937,
        "lon": -0.3711783218598448,
        "alt_km": 502.19266763787346,
        "timestamp": "2025-12-11T22:43:46.928858+00:00",
        "meta_object_name": "ZIYUAN 3-2 (ZY 3-2)",
        "meta_object_id": "2016-033A",
        "meta_epoch": "2025-12-11T14:27:40.034880",
        "meta_mean_motion": 15.2148672,
        "meta_eccentricity": 0.00124232,
        "meta_inclination": 97.4041,
        "meta_ra_of_asc_node": 59.7881,
        "meta_arg_of_pericenter": 253.4459,
        "meta_mean_anomaly": 106.5412,
        "meta_ephemeris_type": 0,
        "meta_classification_type": "U",
        "meta_norad_cat_id": 41556,
        "meta_element_set_no": 999,
        "meta_rev_at_epoch": 52946,
        "meta_bstar": 0.00082897767,
        "meta_mean_motion_dot": 0.00018645,
        "meta_mean_motion_ddot": 0,
        "tle_line1": "1 41556U 16033A   25345.60254670  .00018645  00000+0  82898-3 0  9994",
        "tle_line2": "2 41556  97.4041  59.7881 0012423 253.4459 106.5412 15.21486720529461"
      },
      "geometry": {
        "type": "Point",
        "coordinates": [
          -0.3711783218598448,
          81.50207955192937
        ]
      }
    },
    {
      "type": "Feature",
      "properties": {
        "norad_id": 41599,
        "name": "CARTOSAT-2C",
        "group": "resource",
        "lat": 35.55231606626065,
        "lon": 37.82013521549028,
        "alt_km": 499.17235688845267,
        "timestamp": "2025-12-11T22:43:46.928868+00:00",
        "meta_object_name": "CARTOSAT-2C",
        "meta_object_id": "2016-040A",
        "meta_epoch": "2025-12-11T14:40:08.163840",
        "meta_mean_motion": 15.19284182,
        "meta_eccentricity": 0.00109966,
        "meta_inclination": 97.4763,
        "meta_ra_of_asc_node": 42.873,
        "meta_arg_of_pericenter": 68.6003,
        "meta_mean_anomaly": 291.6403,
        "meta_ephemeris_type": 0,
        "meta_classification_type": "U",
        "meta_norad_cat_id": 41599,
        "meta_element_set_no": 999,
        "meta_rev_at_epoch": 52523,
        "meta_bstar": 0.00056306155,
        "meta_mean_motion_dot": 0.00011839,
        "meta_mean_motion_ddot": 0,
        "tle_line1": "1 41599U 16040A   25345.61120560  .00011839  00000+0  56306-3 0  9993",
        "tle_line2": "2 41599  97.4763  42.8730 0010996  68.6003 291.6403 15.19284182525231"
      },
      "geometry": {
        "type": "Point",
        "coordinates": [
          37.82013521549028,
          35.55231606626065
        ]
      }
    },
    {
      "type": "Feature",
      "properties": {
        "norad_id": 41601,
        "name": "SKYSAT-C1",
        "group": "resource",
        "lat": 52.77794048727753,
        "lon": 13.719897271998487,
        "alt_km": 461.86990530929506,
        "timestamp": "2025-12-11T22:43:46.928879+00:00",
        "meta_object_name": "SKYSAT-C1",
        "meta_object_id": "2016-040C",
        "meta_epoch": "2025-12-11T08:23:40.530624",
        "meta_mean_motion": 15.32550324,
        "meta_eccentricity": 0.00025282,
        "meta_inclination": 96.983,
        "meta_ra_of_asc_node": 22.4415,
        "meta_arg_of_pericenter": 19.7612,
        "meta_mean_anomaly": 340.3729,
        "meta_ephemeris_type": 0,
        "meta_classification_type": "U",
        "meta_norad_cat_id": 41601,
        "meta_element_set_no": 999,
        "meta_rev_at_epoch": 52906,
        "meta_bstar": 0.0005196648,
        "meta_mean_motion_dot": 0.00016279,
        "meta_mean_motion_ddot": 0,
        "tle_line1": "1 41601U 16040C   25345.34977466  .00016279  00000+0  51966-3 0  9992",
        "tle_line2": "2 41601  96.9830  22.4415 0002528  19.7612 340.3729 15.32550324529060"
      },
      "geometry": {
        "type": "Point",
        "coordinates": [
          13.719897271998487,
          52.77794048727753
        ]
      }
    },
    {
      "type": "Feature",
      "properties": {
        "norad_id": 41603,
        "name": "LAPAN-A3",
        "group": "resource",
        "lat": -19.95549586643294,
        "lon": 160.92220916682294,
        "alt_km": 481.4230651999733,
        "timestamp": "2025-12-11T22:43:46.928890+00:00",
        "meta_object_name": "LAPAN-A3",
        "meta_object_id": "2016-040E",
        "meta_epoch": "2025-12-11T15:35:10.694112",
        "meta_mean_motion": 15.31535965,
        "meta_eccentricity": 0.00097929,
        "meta_inclination": 97.1434,
        "meta_ra_of_asc_node": 343.2453,
        "meta_arg_of_pericenter": 338.157,
        "meta_mean_anomaly": 21.9253,
        "meta_ephemeris_type": 0,
        "meta_classification_type": "U",
        "meta_norad_cat_id": 41603,
        "meta_element_set_no": 999,
        "meta_rev_at_epoch": 52609,
        "meta_bstar": 0.00018195736,
        "meta_mean_motion_dot": 5.474e-05,
        "meta_mean_motion_ddot": 0,
        "tle_line1": "1 41603U 16040E   25345.64942933  .00005474  00000+0  18196-3 0  9991",
        "tle_line2": "2 41603  97.1434 343.2453 0009792 338.1570  21.9253 15.31535965526099"
      },
      "geometry": {
        "type": "Point",
        "coordinates": [
          160.92220916682294,
          -19.95549586643294
        ]
      }
    },
    {
      "type": "Feature",
      "properties": {
        "norad_id": 41604,
        "name": "BIROS",
        "group": "resource",
        "lat": -37.50049914465013,
        "lon": -168.11766503935758,
        "alt_km": 309.694698582568,
        "timestamp": "2025-12-11T22:43:46.928900+00:00",
        "meta_object_name": "BIROS",
        "meta_object_id": "2016-040F",
        "meta_epoch": "2025-12-11T02:10:11.450784",
        "meta_mean_motion": 15.88965505,
        "meta_eccentricity": 0.00032243,
        "meta_inclination": 97.0705,
        "meta_ra_of_asc_node": 16.4571,
        "meta_arg_of_pericenter": 155.3544,
        "meta_mean_anomaly": 204.7884,
        "meta_ephemeris_type": 0,
        "meta_classification_type": "U",
        "meta_norad_cat_id": 41604,
        "meta_element_set_no": 999,
        "meta_rev_at_epoch": 52846,
        "meta_bstar": 0.00075595049,
        "meta_mean_motion_dot": 0.0021286,
        "meta_mean_motion_ddot": 1.8142315e-05,
        "tle_line1": "1 41604U 16040F   25345.09041031  .00212860  18142-4  75595-3 0  9996",
        "tle_line2": "2 41604  97.0705  16.4571 0003224 155.3544 204.7884 15.88965505528467"
      },
      "geometry": {
        "type": "Point",
        "coordinates": [
          -168.11766503935758,
          -37.50049914465013
        ]
      }
    },
    {
      "type": "Feature",
      "properties": {
        "norad_id": 41727,
        "name": "GAOFEN-3",
        "group": "resource",
        "lat": -51.13274515898715,
        "lon": 160.97553884771483,
        "alt_km": 759.140243152633,
        "timestamp": "2025-12-11T22:43:46.928911+00:00",
        "meta_object_name": "GAOFEN-3",
        "meta_object_id": "2016-049A",
        "meta_epoch": "2025-12-11T14:59:51.932832",
        "meta_mean_motion": 14.42213293,
        "meta_eccentricity": 0.00014698,
        "meta_inclination": 98.4041,
        "meta_ra_of_asc_node": 351.2279,
        "meta_arg_of_pericenter": 62.2048,
        "meta_mean_anomaly": 297.929,
        "meta_ephemeris_type": 0,
        "meta_classification_type": "U",
        "meta_norad_cat_id": 41727,
        "meta_element_set_no": 999,
        "meta_rev_at_epoch": 49161,
        "meta_bstar": 8.0876158e-05,
        "meta_mean_motion_dot": 2.23e-06,
        "meta_mean_motion_ddot": 0,
        "tle_line1": "1 41727U 16049A   25345.62490663  .00000223  00000+0  80876-4 0  9995",
        "tle_line2": "2 41727  98.4041 351.2279 0001469  62.2048 297.9290 14.42213293491610"
      },
      "geometry": {
        "type": "Point",
        "coordinates": [
          160.97553884771483,
          -51.13274515898715
        ]
      }
    },
    {
      "type": "Feature",
      "properties": {
        "norad_id": 41771,
        "name": "SKYSAT-C4",
        "group": "resource",
        "lat": -38.65457279899934,
        "lon": 16.76198840831792,
        "alt_km": 447.06834565281497,
        "timestamp": "2025-12-11T22:43:46.928922+00:00",
        "meta_object_name": "SKYSAT-C4",
        "meta_object_id": "2016-058B",
        "meta_epoch": "2025-12-11T11:59:52.246464",
        "meta_mean_motion": 15.42194983,
        "meta_eccentricity": 0.00014121,
        "meta_inclination": 96.9377,
        "meta_ra_of_asc_node": 10.7473,
        "meta_arg_of_pericenter": 133.472,
        "meta_mean_anomaly": 226.6646,
        "meta_ephemeris_type": 0,
        "meta_classification_type": "U",
        "meta_norad_cat_id": 41771,
        "meta_element_set_no": 999,
        "meta_rev_at_epoch": 51648,
        "meta_bstar": 0.00059624883,
        "meta_mean_motion_dot": 0.00025551,
        "meta_mean_motion_ddot": 0,
        "tle_line1": "1 41771U 16058B   25345.49991026  .00025551  00000+0  59625-3 0  9996",
        "tle_line2": "2 41771  96.9377  10.7473 0001412 133.4720 226.6646 15.42194983516485"
      },
      "geometry": {
        "type": "Point",
        "coordinates": [
          16.76198840831792,
          -38.65457279899934
        ]
      }
    }
  ]
}